NORAD_CAT_ID,OBJECT_NAME,OBJECT_TYPE,EPOCH,MEAN_MOTION,ECCENTRICITY,INCLINATION,RA_OF_ASC_NODE,ARG_OF_PERICENTER,MEAN_ANOMALY,BSTAR,MEAN_MOTION_DOT,MEAN_MOTION_DDOT,TLE_LINE0,TLE_LINE1,TLE_LINE2,SEMIMAJOR_AXIS,PERIOD,APOGEE,PERIGEE,DECAYED
53539.0,STARLINK-4123,PAYLOAD,2024-06-15 07:55:44,15.0885439,0.0001479,53.2189,32.8988,102.215,257.9008,0.0002387,3.514e-05,0.0,0 STARLINK-4123,1 53539U 22101N   24167.33038046  .00003514  00000-0  23870-3 0  9994,2 53539  53.2189  32.8988 0001479 102.2150 257.9008 15.08854390100707,6917.836,95.437,540.725,538.678,0.0
53539.0,STARLINK-4123,PAYLOAD,2024-06-15 22:14:13,15.0884307,0.0001546,53.2184,30.2177,86.6348,273.4821,0.00010218,1.339e-05,0.0,0 STARLINK-4123,1 53539U 22101N   24167.92654425  .00001339  00000-0  10218-3 0  9999,2 53539  53.2184  30.2177 0001546  86.6348 273.4821 15.08843070100791,6917.871,95.437,540.806,538.667,0.0
53539.0,STARLINK-4123,PAYLOAD,2024-06-16 14:08:04,15.08847926,0.0002026,53.2179,27.2471,85.1237,274.9987,0.00036347,5.502e-05,0.0,0 STARLINK-4123,1 53539U 22101N   24168.58894422  .00005502  00000-0  36347-3 0  9992,2 53539  53.2179  27.2471 0002026  85.1237 274.9987 15.08847926100897,6917.856,95.437,541.123,538.32,0.0
53539.0,STARLINK-4123,PAYLOAD,2024-06-16 22:05:00,15.08842643,0.0001254,53.2172,25.7576,81.342,278.7714,0.00083117,0.00012966,0.0,0 STARLINK-4123,1 53539U 22101N   24168.92014653  .00012966  00000-0  83117-3 0  9999,2 53539  53.2172  25.7576 0001254  81.3420 278.7714 15.08842643100940,6917.872,95.437,540.605,538.87,0.0
53539.0,STARLINK-4123,PAYLOAD,2024-06-17 20:20:24,15.08841931,0.0001324,53.2171,21.5954,85.5517,274.5626,0.00049609,7.617e-05,0.0,0 STARLINK-4123,1 53539U 22101N   24169.84750992  .00007617  00000-0  49609-3 0  9999,2 53539  53.2171  21.5954 0001324  85.5517 274.5626 15.08841931101085,6917.874,95.437,540.655,538.824,0.0
53539.0,STARLINK-4123,PAYLOAD,2024-06-17 21:55:47,15.08843226,0.0001337,53.2172,21.2981,85.1332,274.9813,0.00050745,7.798e-05,0.0,0 STARLINK-4123,1 53539U 22101N   24169.91374974  .00007798  00000-0  50745-3 0  9992,2 53539  53.2172  21.2981 0001337  85.1332 274.9813 15.08843226101090,6917.871,95.437,540.66,538.811,0.0
53539.0,STARLINK-4123,PAYLOAD,2024-06-18 07:28:06,15.08851492,0.0001332,53.2172,19.5136,84.8846,275.2298,0.00062935,9.745e-05,0.0,0 STARLINK-4123,1 53539U 22101N   24170.31118729  .00009745  00000-0  62935-3 0  9990,2 53539  53.2172  19.5136 0001332  84.8846 275.2298 15.08851492101155,6917.845,95.437,540.632,538.789,0.0
53539.0,STARLINK-4123,PAYLOAD,2024-06-18 20:11:11,15.08840402,0.0001545,53.2184,17.1333,97.8324,262.2843,0.0001735,2.474e-05,0.0,0 STARLINK-4123,1 53539U 22101N   24170.84111026  .00002474  00000-0  17350-3 0  9994,2 53539  53.2184  17.1333 0001545  97.8324 262.2843 15.08840402101232,6917.879,95.438,540.813,538.675,0.0
53539.0,STARLINK-4123,PAYLOAD,2024-06-19 07:18:53,15.08845621,0.0001417,53.2176,15.0505,95.5098,264.6055,0.00022076,3.228e-05,0.0,0 STARLINK-4123,1 53539U 22101N   24171.30478852  .00003228  00000-0  22076-3 0  9998,2 53539  53.2176  15.0505 0001417  95.5098 264.6055 15.08845621101309,6917.863,95.437,540.708,538.748,0.0
53539.0,STARLINK-4123,PAYLOAD,2024-06-19 20:01:58,15.08842177,0.0001474,53.2188,12.6713,99.1369,260.979,6.6863e-05,7.76e-06,0.0,0 STARLINK-4123,1 53539U 22101N   24171.83470988  .00000776  00000-0  66863-4 0  9996,2 53539  53.2188  12.6713 0001474  99.1369 260.9790 15.08842177101386,6917.874,95.437,540.758,538.719,0.0
53539.0,STARLINK-4123,PAYLOAD,2024-06-20 13:31:13,15.08841559,0.0001571,53.219,9.3998,103.8496,256.2671,0.00015973,2.255e-05,0.0,0 STARLINK-4123,1 53539U 22101N   24172.56335073  .00002255  00000-0  15973-3 0  9991,2 53539  53.2190   9.3998 0001571 103.8496 256.2671 15.08841559101490,6917.876,95.437,540.827,538.654,0.0
53539.0,STARLINK-4123,PAYLOAD,2024-06-20 19:52:46,15.08838015,0.0001508,53.2191,8.211,102.5342,257.5819,4.3105e-05,3.98e-06,0.0,0 STARLINK-4123,1 53539U 22101N   24172.82831230  .00000398  00000-0  43105-4 0  9991,2 53539  53.2191   8.2110 0001508 102.5342 257.5819 15.08838015101537,6917.886,95.438,540.795,538.708,0.0
53539.0,STARLINK-4123,PAYLOAD,2024-06-20 23:03:32,15.08837872,0.0001508,53.2191,7.6163,102.1692,257.9469,3.378e-05,2.5e-06,0.0,0 STARLINK-4123,1 53539U 22101N   24172.96079242  .00000250  00000-0  33780-4 0  9998,2 53539  53.2191   7.6163 0001508 102.1692 257.9469 15.08837872101559,6917.887,95.438,540.795,538.709,0.0
53539.0,STARLINK-4123,PAYLOAD,2024-06-21 13:22:00,15.08838522,0.0001375,53.2185,4.9413,90.0587,270.0563,9.7306e-05,1.261e-05,0.0,0 STARLINK-4123,1 53539U 22101N   24173.55695317  .00001261  00000-0  97306-4 0  9998,2 53539  53.2185   4.9413 0001375  90.0587 270.0563 15.08838522101644,6917.885,95.438,540.701,538.799,0.0
53539.0,STARLINK-4123,PAYLOAD,2024-06-21 19:43:33,15.08839644,0.0001316,53.219,3.7516,90.1757,269.9386,7.1207e-05,8.46e-06,0.0,0 STARLINK-4123,1 53539U 22101N   24173.82191372  .00000846  00000-0  71207-4 0  9990,2 53539  53.2190   3.7516 0001316  90.1757 269.9386 15.08839644101686,6917.881,95.438,540.657,538.836,0.0
53539.0,STARLINK-4123,PAYLOAD,2024-06-22 21:09:43,15.0883766,0.0001291,53.2188,358.9941,89.3708,270.7432,9.6877e-05,1.254e-05,0.0,0 STARLINK-4123,1 53539U 22101N   24174.88175631  .00001254  00000-0  96877-4 0  9991,2 53539  53.2188 358.9941 0001291  89.3708 270.7432 15.08837660101844,6917.888,95.438,540.646,538.859,0.0
53539.0,STARLINK-4123,PAYLOAD,2024-06-22 22:45:06,15.08838296,0.0001287,53.2188,358.6965,88.9117,271.2023,9.9113e-05,1.29e-05,0.0,0 STARLINK-4123,1 53539U 22101N   24174.94799594  .00001290  00000-0  99113-4 0  9994,2 53539  53.2188 358.6965 0001287  88.9117 271.2023 15.08838296101850,6917.886,95.438,540.641,538.86,0.0
53539.0,STARLINK-4123,PAYLOAD,2024-06-23 21:00:30,15.0884155,0.0001314,53.2188,354.5326,88.5367,271.5776,0.00010608,1.401e-05,0.0,0 STARLINK-4123,1 53539U 22101N   24175.87535499  .00001401  00000-0  10608-3 0  9994,2 53539  53.2188 354.5326 0001314  88.5367 271.5776 15.08841550101990,6917.876,95.437,540.65,538.832,0.0
53539.0,STARLINK-4123,PAYLOAD,2024-06-24 11:18:58,15.08840676,0.0001283,53.2186,351.8571,99.8689,260.2448,9.162e-05,1.171e-05,0.0,0 STARLINK-4123,1 53539U 22101N   24176.47151559  .00001171  00000-0  91620-4 0  9990,2 53539  53.2186 351.8571 0001283  99.8689 260.2448 15.08840676102087,6917.878,95.438,540.631,538.856,0.0
53539.0,STARLINK-4123,PAYLOAD,2024-06-24 19:15:54,15.08841355,0.0001291,53.2185,350.3701,98.1131,262.0007,8.8822e-05,1.126e-05,0.0,0 STARLINK-4123,1 53539U 22101N   24176.80271532  .00001126  00000-0  88822-4 0  9991,2 53539  53.2185 350.3701 0001291  98.1131 262.0007 15.08841355102130,6917.876,95.437,540.634,538.848,0.0
53539.0,STARLINK-4123,PAYLOAD,2024-06-25 17:31:18,15.08838759,0.0001355,53.2188,346.2073,140.3918,219.7173,1.7524e-05,-9e-08,0.0,0 STARLINK-4123,1 53539U 22101N   24177.73007737 -.00000009  00000-0  17524-4 0  9999,2 53539  53.2188 346.2073 0001355 140.3918 219.7173 15.08838759102275,6917.884,95.438,540.687,538.812,0.0
53539.0,STARLINK-4123,PAYLOAD,2024-06-27 04:29:47,15.08846268,0.0001211,53.2196,339.6618,98.5707,261.5423,0.00010784,1.429e-05,0.0,0 STARLINK-4123,1 53539U 22101N   24179.18735195  .00001429  00000-0  10784-3 0  9992,2 53539  53.2196 339.6618 0001211  98.5707 261.5423 15.08846268102497,6917.861,95.437,540.564,538.888,0.0
53539.0,STARLINK-4123,PAYLOAD,2024-06-27 17:12:53,15.08829676,0.0001464,53.2193,337.287,97.8831,262.2327,0.00020358,2.953e-05,0.0,0 STARLINK-4123,1 53539U 22101N   24179.71728042  .00002953  00000-0  20358-3 0  9995,2 53539  53.2193 337.2870 0001464  97.8831 262.2327 15.08829676102572,6917.912,95.438,540.79,538.764,0.0
53539.0,STARLINK-4123,PAYLOAD,2024-06-28 13:52:54,15.08940247,0.0001927,53.2182,333.4223,69.3523,290.7675,-0.0010842,-0.0001755,0.0,0 STARLINK-4123,1 53539U 22101N   24180.57840919 -.00017550  00000-0 -10842-2 0  9996,2 53539  53.2182 333.4223 0001927  69.3523 290.7675 15.08940247102701,6917.574,95.431,540.772,538.106,0.0
53539.0,STARLINK-4123,PAYLOAD,2024-06-28 17:03:39,15.08861094,0.0001549,53.2182,332.8258,89.5331,270.5839,-0.00011297,-2.087e-05,0.0,0 STARLINK-4123,1 53539U 22101N   24180.71087179 -.00002087  00000-0 -11297-3 0  9998,2 53539  53.2182 332.8258 0001549  89.5331 270.5839 15.08861094102725,6917.816,95.436,540.752,538.609,0.0
53539.0,STARLINK-4123,PAYLOAD,2024-06-29 10:32:54,15.08824633,0.0001402,53.2179,329.5569,84.9011,275.2141,-0.00028344,-4.794e-05,0.0,0 STARLINK-4123,1 53539U 22101N   24181.43952033 -.00004794  00000-0 -28344-3 0  9996,2 53539  53.2179 329.5569 0001402  84.9011 275.2141 15.08824633102839,6917.927,95.439,540.762,538.822,0.0
53539.0,STARLINK-4123,PAYLOAD,2024-06-29 13:43:40,15.08826121,0.0001387,53.2177,328.9624,83.6933,276.4217,-0.00024011,-4.106e-05,0.0,0 STARLINK-4123,1 53539U 22101N   24181.57200099 -.00004106  00000-0 -24011-3 0  9993,2 53539  53.2177 328.9624 0001387  83.6933 276.4217 15.08826121102856,6917.923,95.438,540.747,538.828,0.0
53539.0,STARLINK-4123,PAYLOAD,2024-06-29 16:54:27,15.08832522,0.00012,53.2172,328.367,71.805,288.3073,-8.4244e-05,-1.628e-05,0.0,0 STARLINK-4123,1 53539U 22101N   24181.70448009 -.00001628  00000-0 -84244-4 0  9994,2 53539  53.2172 328.3670 0001200  71.8050 288.3073 15.08832522102875,6917.903,95.438,540.598,538.938,0.0
53539.0,STARLINK-4123,PAYLOAD,2024-06-30 02:26:45,15.08845885,0.0001358,53.2181,326.5847,81.6052,278.5094,0.00015942,2.251e-05,0.0,0 STARLINK-4123,1 53539U 22101N   24182.10191497  .00002251  00000-0  15942-3 0  9994,2 53539  53.2181 326.5847 0001358  81.6052 278.5094 15.08845885102933,6917.862,95.437,540.667,538.788,0.0
53539.0,STARLINK-4123,PAYLOAD,2024-06-30 13:34:28,15.08827335,0.00012,53.2157,324.501,72.1046,288.0077,1.5629e-05,-3.9e-07,0.0,0 STARLINK-4123,1 53539U 22101N   24182.56560254 -.00000039  00000-0  15629-4 0  9991,2 53539  53.2157 324.5010 0001200  72.1046 288.0077 15.08827335103006,6917.919,95.438,540.614,538.954,0.0
